start=new Date('2022-03-09T00:00:00.000Z').valueOf();
sats=[{"FILE":"3351330","INCLINATION":"53.0545","TIME_SYSTEM":"UTC","RCS_SIZE":"LARGE","RA_OF_ASC_NODE":"214.8098","REF_FRAME":"TEME","TLE_LINE1":"1 48578U 21041AB  22067.68677778 -.00000473  00000-0 -12854-4 0  9993","OBJECT_TYPE":"PAYLOAD","SITE":"AFETR","CENTER_NAME":"EARTH","TLE_LINE2":"2 48578  53.0545 214.8098 0001367  71.3359 288.7778 15.06379740 44842","NORAD_CAT_ID":"48578","MEAN_MOTION_DOT":"-0.00000473","CLASSIFICATION_TYPE":"U","BSTAR":"-0.00001285400000","MEAN_MOTION_DDOT":"0.0000000000000","MEAN_ELEMENT_THEORY":"SGP4","ARG_OF_PERICENTER":"71.3359","ECCENTRICITY":"0.00013670","GP_ID":"198272933","MEAN_MOTION":"15.06379740","PERIOD":"95.593","MEAN_ANOMALY":"288.7778","EPHEMERIS_TYPE":"0","COUNTRY_CODE":"US","LAUNCH_DATE":"2021-05-15","SEMIMAJOR_AXIS":"6925.411","EPOCH":"2022-03-08T16:28:57.600192","ELEMENT_SET_NO":"999","OBJECT_ID":"2021-041AB","REV_AT_EPOCH":"4484","PERIAPSIS":"546.329","DECAY_DATE":null,"APOAPSIS":"548.222","OBJECT_NAME":"STARLINK-2232"},{"MEAN_ANOMALY":"290.1710","PERIOD":"95.593","MEAN_MOTION":"15.06391917","GP_ID":"198274185","ECCENTRICITY":"0.00013140","ARG_OF_PERICENTER":"69.9421","MEAN_ELEMENT_THEORY":"SGP4","MEAN_MOTION_DDOT":"0.0000000000000","CLASSIFICATION_TYPE":"U","BSTAR":"-0.00009793700000","NORAD_CAT_ID":"48579","MEAN_MOTION_DOT":"-0.00001740","TLE_LINE2":"2 48579  53.0537 214.1795 0001314  69.9421 290.1710 15.06391917 44861","CENTER_NAME":"EARTH","OBJECT_TYPE":"PAYLOAD","SITE":"AFETR","TLE_LINE1":"1 48579U 21041AC  22067.82778662 -.00001740  00000-0 -97937-4 0  9997","REF_FRAME":"TEME","RA_OF_ASC_NODE":"214.1795","RCS_SIZE":"LARGE","TIME_SYSTEM":"UTC","INCLINATION":"53.0537","FILE":"3351330","OBJECT_NAME":"STARLINK-2233","APOAPSIS":"548.148","DECAY_DATE":null,"PERIAPSIS":"546.328","REV_AT_EPOCH":"4486","OBJECT_ID":"2021-041AC","ELEMENT_SET_NO":"999","EPOCH":"2022-03-08T19:52:00.763968","SEMIMAJOR_AXIS":"6925.373","LAUNCH_DATE":"2021-05-15","COUNTRY_CODE":"US","EPHEMERIS_TYPE":"0"},{"DECAY_DATE":null,"APOAPSIS":"548.110","OBJECT_NAME":"STARLINK-2234","REV_AT_EPOCH":"359","PERIAPSIS":"546.390","LAUNCH_DATE":"2021-05-15","SEMIMAJOR_AXIS":"6925.385","EPOCH":"2022-03-08T22:00:00.999936","ELEMENT_SET_NO":"999","OBJECT_ID":"2021-041AD","EPHEMERIS_TYPE":"0","COUNTRY_CODE":"US","MEAN_ELEMENT_THEORY":"SGP4","ARG_OF_PERICENTER":"82.6967","GP_ID":"198274436","ECCENTRICITY":"0.00012420","MEAN_MOTION":"15.06388031","PERIOD":"95.593","MEAN_ANOMALY":"222.3333","CENTER_NAME":"EARTH","TLE_LINE2":"2 48580  53.0539 188.7856 0001242  82.6967 222.3333 15.06388031  3592","NORAD_CAT_ID":"48580","MEAN_MOTION_DOT":"-0.00010958","CLASSIFICATION_TYPE":"U","BSTAR":"-0.00071813000000","MEAN_MOTION_DDOT":"0.0000000000000","REF_FRAME":"TEME","TLE_LINE1":"1 48580U 21041AD  22067.91667824 -.00010958  00000-0 -71813-3 0  9991","OBJECT_TYPE":"PAYLOAD","SITE":"AFETR","FILE":"3351330","INCLINATION":"53.0539","RCS_SIZE":"LARGE","TIME_SYSTEM":"UTC","RA_OF_ASC_NODE":"188.7856"},{"MEAN_MOTION_DDOT":"0.0000000000000","CENTER_NAME":"EARTH","TLE_LINE2":"2 48581  53.0554 178.7725 0001203  69.4594  90.5736 15.06412648 45837","NORAD_CAT_ID":"48581","MEAN_MOTION_DOT":"-0.00015069","CLASSIFICATION_TYPE":"U","BSTAR":"-0.00099455000000","MEAN_ANOMALY":"90.5736","PERIOD":"95.591","MEAN_ELEMENT_THEORY":"SGP4","ARG_OF_PERICENTER":"69.4594","GP_ID":"198248976","ECCENTRICITY":"0.00012030","MEAN_MOTION":"15.06412648","TIME_SYSTEM":"UTC","RCS_SIZE":"LARGE","RA_OF_ASC_NODE":"178.7725","FILE":"3351208","INCLINATION":"53.0554","SITE":"AFETR","OBJECT_TYPE":"PAYLOAD","REF_FRAME":"TEME","TLE_LINE1":"1 48581U 21041AE  22067.91667824 -.00015069  00000-0 -99455-3 0  9992","PERIAPSIS":"546.342","REV_AT_EPOCH":"4583","OBJECT_NAME":"STARLINK-2235","DECAY_DATE":null,"APOAPSIS":"548.008","COUNTRY_CODE":"US","EPHEMERIS_TYPE":"0","ELEMENT_SET_NO":"999","OBJECT_ID":"2021-041AE","LAUNCH_DATE":"2021-05-15","SEMIMAJOR_AXIS":"6925.310","EPOCH":"2022-03-08T22:00:00.999936"},{"ELEMENT_SET_NO":"999","OBJECT_ID":"2021-041AF","LAUNCH_DATE":"2021-05-15","EPOCH":"2022-03-08T22:00:00.999936","SEMIMAJOR_AXIS":"6925.345","COUNTRY_CODE":"US","EPHEMERIS_TYPE":"0","OBJECT_NAME":"STARLINK-2236","APOAPSIS":"548.245","DECAY_DATE":null,"PERIAPSIS":"546.176","REV_AT_EPOCH":"359","OBJECT_TYPE":"PAYLOAD","SITE":"AFETR","REF_FRAME":"TEME","TLE_LINE1":"1 48582U 21041AF  22067.91667824 -.00020912  00000-0 -13891-2 0  9995","RA_OF_ASC_NODE":"178.7650","RCS_SIZE":"LARGE","TIME_SYSTEM":"UTC","INCLINATION":"53.0528","FILE":"3351330","PERIOD":"95.592","MEAN_ANOMALY":"276.7852","ARG_OF_PERICENTER":"63.2337","MEAN_ELEMENT_THEORY":"SGP4","MEAN_MOTION":"15.06401110","ECCENTRICITY":"0.00014940","GP_ID":"198273434","MEAN_MOTION_DDOT":"0.0000000000000","NORAD_CAT_ID":"48582","MEAN_MOTION_DOT":"-0.00020912","CENTER_NAME":"EARTH","TLE_LINE2":"2 48582  53.0528 178.7650 0001494  63.2337 276.7852 15.06401110  3591","CLASSIFICATION_TYPE":"U","BSTAR":"-0.00138910000000"},{"EPHEMERIS_TYPE":"0","COUNTRY_CODE":"US","LAUNCH_DATE":"2021-05-15","SEMIMAJOR_AXIS":"6925.371","EPOCH":"2022-03-08T17:48:36.023904","ELEMENT_SET_NO":"999","OBJECT_ID":"2021-041AG","PERIAPSIS":"546.272","REV_AT_EPOCH":"4471","DECAY_DATE":null,"APOAPSIS":"548.200","OBJECT_NAME":"STARLINK-2237","FILE":"3351330","INCLINATION":"53.0534","TIME_SYSTEM":"UTC","RCS_SIZE":"LARGE","RA_OF_ASC_NODE":"224.5658","REF_FRAME":"TEME","TLE_LINE1":"1 48583U 21041AG  22067.74208361 -.00000666  00000-0 -25804-4 0  9997","SITE":"AFETR","OBJECT_TYPE":"PAYLOAD","TLE_LINE2":"2 48583  53.0534 224.5658 0001392  73.6092 286.5050 15.06392574 44718","CENTER_NAME":"EARTH","NORAD_CAT_ID":"48583","MEAN_MOTION_DOT":"-0.00000666","CLASSIFICATION_TYPE":"U","BSTAR":"-0.00002580400000","MEAN_MOTION_DDOT":"0.0000000000000","MEAN_ELEMENT_THEORY":"SGP4","ARG_OF_PERICENTER":"73.6092","GP_ID":"198273685","ECCENTRICITY":"0.00013920","MEAN_MOTION":"15.06392574","PERIOD":"95.593","MEAN_ANOMALY":"286.5050"},{"OBJECT_TYPE":"PAYLOAD","SITE":"AFETR","REF_FRAME":"TEME","TLE_LINE1":"1 48584U 21041AH  22067.84898056 -.00003226  00000-0 -19773-3 0  9997","RA_OF_ASC_NODE":"224.0821","TIME_SYSTEM":"UTC","RCS_SIZE":"LARGE","INCLINATION":"53.0542","FILE":"3351330","PERIOD":"95.592","MEAN_ANOMALY":"281.9994","ARG_OF_PERICENTER":"78.1172","MEAN_ELEMENT_THEORY":"SGP4","MEAN_MOTION":"15.06401240","GP_ID":"198276190","ECCENTRICITY":"0.00015820","MEAN_MOTION_DDOT":"0.0000000000000","NORAD_CAT_ID":"48584","MEAN_MOTION_DOT":"-0.00003226","CENTER_NAME":"EARTH","TLE_LINE2":"2 48584  53.0542 224.0821 0001582  78.1172 281.9994 15.06401240 44723","BSTAR":"-0.00019773000000","CLASSIFICATION_TYPE":"U","ELEMENT_SET_NO":"999","OBJECT_ID":"2021-041AH","LAUNCH_DATE":"2021-05-15","EPOCH":"2022-03-08T20:22:31.920384","SEMIMAJOR_AXIS":"6925.345","COUNTRY_CODE":"US","EPHEMERIS_TYPE":"0","OBJECT_NAME":"STARLINK-2238","APOAPSIS":"548.305","DECAY_DATE":null,"PERIAPSIS":"546.114","REV_AT_EPOCH":"4472"},{"COUNTRY_CODE":"US","EPHEMERIS_TYPE":"0","ELEMENT_SET_NO":"999","OBJECT_ID":"2021-041AJ","LAUNCH_DATE":"2021-05-15","SEMIMAJOR_AXIS":"6925.359","EPOCH":"2022-03-08T17:27:21.837312","PERIAPSIS":"546.427","REV_AT_EPOCH":"4470","OBJECT_NAME":"STARLINK-2240","DECAY_DATE":null,"APOAPSIS":"548.021","RCS_SIZE":"LARGE","TIME_SYSTEM":"UTC","RA_OF_ASC_NODE":"224.6324","FILE":"3351330","INCLINATION":"53.0552","SITE":"AFETR","OBJECT_TYPE":"PAYLOAD","REF_FRAME":"TEME","TLE_LINE1":"1 48585U 21041AJ  22067.72733608  .00000441  00000-0  48515-4 0  9997","MEAN_MOTION_DDOT":"0.0000000000000","CENTER_NAME":"EARTH","TLE_LINE2":"2 48585  53.0552 224.6324 0001151  83.4374 276.6746 15.06396568 44704","MEAN_MOTION_DOT":"0.00000441","NORAD_CAT_ID":"48585","CLASSIFICATION_TYPE":"U","BSTAR":"0.00004851500000","PERIOD":"95.592","MEAN_ANOMALY":"276.6746","MEAN_ELEMENT_THEORY":"SGP4","ARG_OF_PERICENTER":"83.4374","GP_ID":"198274938","ECCENTRICITY":"0.00011510","MEAN_MOTION":"15.06396568"},{"FILE":"3351330","INCLINATION":"53.0547","TIME_SYSTEM":"UTC","RCS_SIZE":"LARGE","RA_OF_ASC_NODE":"224.6600","TLE_LINE1":"1 48586U 21041AK  22067.71997980 -.00000403  00000-0 -81384-5 0  9994","REF_FRAME":"TEME","OBJECT_TYPE":"PAYLOAD","SITE":"AFETR","BSTAR":"-0.00000813840000","CLASSIFICATION_TYPE":"U","TLE_LINE2":"2 48586  53.0547 224.6600 0001346  79.9166 280.1975 15.06383423 44701","CENTER_NAME":"EARTH","MEAN_MOTION_DOT":"-0.00000403","NORAD_CAT_ID":"48586","MEAN_MOTION_DDOT":"0.0000000000000","GP_ID":"198275188","ECCENTRICITY":"0.00013460","MEAN_MOTION":"15.06383423","MEAN_ELEMENT_THEORY":"SGP4","ARG_OF_PERICENTER":"79.9166","MEAN_ANOMALY":"280.1975","PERIOD":"95.593","EPHEMERIS_TYPE":"0","COUNTRY_CODE":"US","SEMIMAJOR_AXIS":"6925.399","EPOCH":"2022-03-08T17:16:46.254720","LAUNCH_DATE":"2021-05-15","OBJECT_ID":"2021-041AK","ELEMENT_SET_NO":"999","PERIAPSIS":"546.332","REV_AT_EPOCH":"4470","DECAY_DATE":null,"APOAPSIS":"548.197","OBJECT_NAME":"STARLINK-2241"},{"TLE_LINE1":"1 48587U 21041AL  22067.85634733 -.00000342  00000-0 -40529-5 0  9992","REF_FRAME":"TEME","SITE":"AFETR","OBJECT_TYPE":"PAYLOAD","FILE":"3351330","INCLINATION":"53.0546","TIME_SYSTEM":"UTC","RCS_SIZE":"LARGE","RA_OF_ASC_NODE":"224.0188","ECCENTRICITY":"0.00012980","GP_ID":"198275439","MEAN_MOTION":"15.06402654","MEAN_ELEMENT_THEORY":"SGP4","ARG_OF_PERICENTER":"96.5143","MEAN_ANOMALY":"263.5994","PERIOD":"95.592","BSTAR":"-0.00000405290000","CLASSIFICATION_TYPE":"U","TLE_LINE2":"2 48587  53.0546 224.0188 0001298  96.5143 263.5994 15.06402654 44728","CENTER_NAME":"EARTH","MEAN_MOTION_DOT":"-0.00000342","NORAD_CAT_ID":"48587","MEAN_MOTION_DDOT":"0.0000000000000","SEMIMAJOR_AXIS":"6925.340","EPOCH":"2022-03-08T20:33:08.409312","LAUNCH_DATE":"2021-05-15","OBJECT_ID":"2021-041AL","ELEMENT_SET_NO":"999","EPHEMERIS_TYPE":"0","COUNTRY_CODE":"US","DECAY_DATE":null,"APOAPSIS":"548.104","OBJECT_NAME":"STARLINK-2242","PERIAPSIS":"546.307","REV_AT_EPOCH":"4472"}];
